{
  "type": "FeatureCollection",
  "features": [
    {
      "type": "Feature",
      "properties": {
        "norad_id": 30932,
        "name": "FENGYUN 1C DEB",
        "group": "fengyun-1c-debris",
        "lat": -60.64602119413678,
        "lon": -69.68454863995345,
        "alt_km": 768.2438684788458,
        "timestamp": "2025-12-07T07:31:36.577788+00:00",
        "meta_object_name": "FENGYUN 1C DEB",
        "meta_object_id": "1999-025AZW",
        "meta_epoch": "2025-12-06T06:33:57.807072",
        "meta_mean_motion": 14.26670328,
        "meta_eccentricity": 0.0059168,
        "meta_inclination": 98.9096,
        "meta_ra_of_asc_node": 273.0614,
        "meta_arg_of_pericenter": 312.5313,
        "meta_mean_anomaly": 47.0879,
        "meta_ephemeris_type": 0,
        "meta_classification_type": "U",
        "meta_norad_cat_id": 30932,
        "meta_element_set_no": 999,
        "meta_rev_at_epoch": 96302,
        "meta_bstar": 0.0052315372,
        "meta_mean_motion_dot": 0.00012859,
        "meta_mean_motion_ddot": 0,
        "tle_line1": "1 30932U 99025AZW 25340.27358573  .00012859  00000+0  52315-2 0  9998",
        "tle_line2": "2 30932  98.9096 273.0614 0059168 312.5313  47.0879 14.26670328963024"
      },
      "geometry": {
        "type": "Point",
        "coordinates": [
          -69.68454863995345,
          -60.64602119413678
        ]
      }
    },
    {
      "type": "Feature",
      "properties": {
        "norad_id": 30933,
        "name": "FENGYUN 1C DEB",
        "group": "fengyun-1c-debris",
        "lat": 9.100634717358885,
        "lon": -37.92725939845053,
        "alt_km": 724.9681005112925,
        "timestamp": "2025-12-07T07:31:36.577798+00:00",
        "meta_object_name": "FENGYUN 1C DEB",
        "meta_object_id": "1999-025AZX",
        "meta_epoch": "2025-12-06T21:44:51.442944",
        "meta_mean_motion": 14.3621008,
        "meta_eccentricity": 0.00777026,
        "meta_inclination": 99.0477,
        "meta_ra_of_asc_node": 323.1077,
        "meta_arg_of_pericenter": 339.4141,
        "meta_mean_anomaly": 83.8894,
        "meta_ephemeris_type": 0,
        "meta_classification_type": "U",
        "meta_norad_cat_id": 30933,
        "meta_element_set_no": 999,
        "meta_rev_at_epoch": 95788,
        "meta_bstar": 0.0083599104,
        "meta_mean_motion_dot": 0.00025291,
        "meta_mean_motion_ddot": 0,
        "tle_line1": "1 30933U 99025AZX 25340.90615096  .00025291  00000+0  83599-2 0  9997",
        "tle_line2": "2 30933  99.0477 323.1077 0077702 339.4141  83.8894 14.36210080957889"
      },
      "geometry": {
        "type": "Point",
        "coordinates": [
          -37.92725939845053,
          9.100634717358885
        ]
      }
    },
    {
      "type": "Feature",
      "properties": {
        "norad_id": 30934,
        "name": "FENGYUN 1C DEB",
        "group": "fengyun-1c-debris",
        "lat": -75.58385468836902,
        "lon": 2.091680903550071,
        "alt_km": 1333.9364365327665,
        "timestamp": "2025-12-07T07:31:36.577808+00:00",
        "meta_object_name": "FENGYUN 1C DEB",
        "meta_object_id": "1999-025AZY",
        "meta_epoch": "2025-12-06T21:21:24.681600",
        "meta_mean_motion": 13.46717119,
        "meta_eccentricity": 0.03401955,
        "meta_inclination": 98.7656,
        "meta_ra_of_asc_node": 218.6041,
        "meta_arg_of_pericenter": 96.4082,
        "meta_mean_anomaly": 267.5903,
        "meta_ephemeris_type": 0,
        "meta_classification_type": "U",
        "meta_norad_cat_id": 30934,
        "meta_element_set_no": 999,
        "meta_rev_at_epoch": 91629,
        "meta_bstar": 0.0025318512,
        "meta_mean_motion_dot": 2.142e-05,
        "meta_mean_motion_ddot": 0,
        "tle_line1": "1 30934U 99025AZY 25340.88986900  .00002142  00000+0  25319-2 0  9996",
        "tle_line2": "2 30934  98.7656 218.6041 0340195  96.4082 267.5903 13.46717119916294"
      },
      "geometry": {
        "type": "Point",
        "coordinates": [
          2.091680903550071,
          -75.58385468836902
        ]
      }
    },
    {
      "type": "Feature",
      "properties": {
        "norad_id": 30936,
        "name": "FENGYUN 1C DEB",
        "group": "fengyun-1c-debris",
        "lat": -53.21299546565506,
        "lon": -179.40205455163021,
        "alt_km": 811.098689900833,
        "timestamp": "2025-12-07T07:31:36.577818+00:00",
        "meta_object_name": "FENGYUN 1C DEB",
        "meta_object_id": "1999-025BAA",
        "meta_epoch": "2025-12-06T21:08:27.105792",
        "meta_mean_motion": 14.23353343,
        "meta_eccentricity": 0.00460167,
        "meta_inclination": 98.5822,
        "meta_ra_of_asc_node": 11.8276,
        "meta_arg_of_pericenter": 308.1481,
        "meta_mean_anomaly": 230.1934,
        "meta_ephemeris_type": 0,
        "meta_classification_type": "U",
        "meta_norad_cat_id": 30936,
        "meta_element_set_no": 999,
        "meta_rev_at_epoch": 97049,
        "meta_bstar": 0.0008976364,
        "meta_mean_motion_dot": 2.015e-05,
        "meta_mean_motion_ddot": 0,
        "tle_line1": "1 30936U 99025BAA 25340.88086928  .00002015  00000+0  89764-3 0  9993",
        "tle_line2": "2 30936  98.5822  11.8276 0046016 308.1481 230.1934 14.23353343970496"
      },
      "geometry": {
        "type": "Point",
        "coordinates": [
          -179.40205455163021,
          -53.21299546565506
        ]
      }
    },
    {
      "type": "Feature",
      "properties": {
        "norad_id": 30937,
        "name": "FENGYUN 1C DEB",
        "group": "fengyun-1c-debris",
        "lat": -65.49060383941715,
        "lon": -166.80589201548054,
        "alt_km": 971.5874904851898,
        "timestamp": "2025-12-07T07:31:36.577828+00:00",
        "meta_object_name": "FENGYUN 1C DEB",
        "meta_object_id": "1999-025BAB",
        "meta_epoch": "2025-12-06T17:09:36.443232",
        "meta_mean_motion": 13.95582863,
        "meta_eccentricity": 0.00758454,
        "meta_inclination": 99.0895,
        "meta_ra_of_asc_node": 33.1599,
        "meta_arg_of_pericenter": 69.566,
        "meta_mean_anomaly": 51.6636,
        "meta_ephemeris_type": 0,
        "meta_classification_type": "U",
        "meta_norad_cat_id": 30937,
        "meta_element_set_no": 999,
        "meta_rev_at_epoch": 95632,
        "meta_bstar": 2.0447885e-05,
        "meta_mean_motion_dot": -1.5e-07,
        "meta_mean_motion_ddot": 0,
        "tle_line1": "1 30937U 99025BAB 25340.71500513 -.00000015  00000+0  20448-4 0  9991",
        "tle_line2": "2 30937  99.0895  33.1599 0075845  69.5660  51.6636 13.95582863956327"
      },
      "geometry": {
        "type": "Point",
        "coordinates": [
          -166.80589201548054,
          -65.49060383941715
        ]
      }
    },
    {
      "type": "Feature",
      "properties": {
        "norad_id": 30938,
        "name": "FENGYUN 1C DEB",
        "group": "fengyun-1c-debris",
        "lat": -36.0716562882699,
        "lon": 168.64389365629128,
        "alt_km": 858.847152885779,
        "timestamp": "2025-12-07T07:31:36.577838+00:00",
        "meta_object_name": "FENGYUN 1C DEB",
        "meta_object_id": "1999-025BAC",
        "meta_epoch": "2025-12-06T14:12:00.489312",
        "meta_mean_motion": 14.19805087,
        "meta_eccentricity": 0.00462493,
        "meta_inclination": 98.591,
        "meta_ra_of_asc_node": 354.2656,
        "meta_arg_of_pericenter": 1.5816,
        "meta_mean_anomaly": 127.19,
        "meta_ephemeris_type": 0,
        "meta_classification_type": "U",
        "meta_norad_cat_id": 30938,
        "meta_element_set_no": 999,
        "meta_rev_at_epoch": 97032,
        "meta_bstar": 0.00065435898,
        "meta_mean_motion_dot": 1.359e-05,
        "meta_mean_motion_ddot": 0,
        "tle_line1": "1 30938U 99025BAC 25340.59167233  .00001359  00000+0  65436-3 0  9992",
        "tle_line2": "2 30938  98.5910 354.2656 0046249   1.5816 127.1900 14.19805087970328"
      },
      "geometry": {
        "type": "Point",
        "coordinates": [
          168.64389365629128,
          -36.0716562882699
        ]
      }
    },
    {
      "type": "Feature",
      "properties": {
        "norad_id": 30940,
        "name": "FENGYUN 1C DEB",
        "group": "fengyun-1c-debris",
        "lat": 5.798151800136918,
        "lon": -18.98599607946841,
        "alt_km": 838.0528967035498,
        "timestamp": "2025-12-07T07:31:36.577848+00:00",
        "meta_object_name": "FENGYUN 1C DEB",
        "meta_object_id": "1999-025BAE",
        "meta_epoch": "2025-12-05T06:06:10.312128",
        "meta_mean_motion": 14.08285934,
        "meta_eccentricity": 0.00414748,
        "meta_inclination": 98.6226,
        "meta_ra_of_asc_node": 339.9288,
        "meta_arg_of_pericenter": 24.7538,
        "meta_mean_anomaly": 346.6881,
        "meta_ephemeris_type": 0,
        "meta_classification_type": "U",
        "meta_norad_cat_id": 30940,
        "meta_element_set_no": 999,
        "meta_rev_at_epoch": 96027,
        "meta_bstar": 0.000647699,
        "meta_mean_motion_dot": 1.074e-05,
        "meta_mean_motion_ddot": 0,
        "tle_line1": "1 30940U 99025BAE 25339.25428602  .00001074  00000+0  64770-3 0  9990",
        "tle_line2": "2 30940  98.6226 339.9288 0041474  24.7538 346.6881 14.08285934960276"
      },
      "geometry": {
        "type": "Point",
        "coordinates": [
          -18.98599607946841,
          5.798151800136918
        ]
      }
    }
  ]
}